start=new Date('2021-12-30T00:00:00.000Z').valueOf();
sats=[{"RCS_SIZE":"LARGE","NORAD_CAT_ID":"47768","TIME_SYSTEM":"UTC","MEAN_MOTION_DOT":"0.00001820","MEAN_MOTION":"15.06401038","EPHEMERIS_TYPE":"0","COUNTRY_CODE":"US","ELEMENT_SET_NO":"999","MEAN_MOTION_DDOT":"0.0000000000000","OBJECT_NAME":"STARLINK-2189","MEAN_ANOMALY":"306.1333","DECAY_DATE":null,"ARG_OF_PERICENTER":"53.9831","PERIAPSIS":"545.901","ECCENTRICITY":"0.00018910","GP_ID":"192744067","EPOCH":"2021-12-29T22:40:01.992864","OBJECT_TYPE":"PAYLOAD","REF_FRAME":"TEME","FILE":"3255236","TLE_LINE2":"2 47768  53.0535 258.4148 0001891  53.9831 306.1333 15.06401038 46822","SITE":"AFETR","LAUNCH_DATE":"2021-03-04","RA_OF_ASC_NODE":"258.4148","OBJECT_ID":"2021-017AY","TLE_LINE1":"1 47768U 21017AY  21363.94446751  .00001820  00000-0  14102-3 0  9990","MEAN_ELEMENT_THEORY":"SGP4","PERIOD":"95.592","REV_AT_EPOCH":"4682","BSTAR":"0.00014102000000","CENTER_NAME":"EARTH","SEMIMAJOR_AXIS":"6925.345","INCLINATION":"53.0535","APOAPSIS":"548.520","CLASSIFICATION_TYPE":"U"},{"SEMIMAJOR_AXIS":"6925.360","INCLINATION":"53.0522","APOAPSIS":"548.813","CLASSIFICATION_TYPE":"U","SITE":"AFETR","LAUNCH_DATE":"2021-03-04","RA_OF_ASC_NODE":"223.4825","OBJECT_ID":"2021-017AZ","TLE_LINE1":"1 47769U 21017AZ  21363.92468497  .00000287  00000-0  38182-4 0  9991","MEAN_ELEMENT_THEORY":"SGP4","REV_AT_EPOCH":"4733","PERIOD":"95.592","CENTER_NAME":"EARTH","BSTAR":"0.00003818200000","PERIAPSIS":"545.637","ECCENTRICITY":"0.00022930","EPOCH":"2021-12-29T22:11:32.781408","GP_ID":"192743818","OBJECT_TYPE":"PAYLOAD","REF_FRAME":"TEME","FILE":"3255236","TLE_LINE2":"2 47769  53.0522 223.4825 0002293  63.6268 296.4956 15.06396354 47335","NORAD_CAT_ID":"47769","RCS_SIZE":"LARGE","MEAN_MOTION_DOT":"0.00000287","TIME_SYSTEM":"UTC","MEAN_MOTION":"15.06396354","EPHEMERIS_TYPE":"0","ELEMENT_SET_NO":"999","COUNTRY_CODE":"US","MEAN_MOTION_DDOT":"0.0000000000000","OBJECT_NAME":"STARLINK-2192","MEAN_ANOMALY":"296.4956","DECAY_DATE":null,"ARG_OF_PERICENTER":"63.6268"},{"PERIAPSIS":"545.832","ECCENTRICITY":"0.00019650","EPOCH":"2021-12-29T22:22:49.088640","GP_ID":"192744567","OBJECT_TYPE":"PAYLOAD","REF_FRAME":"TEME","FILE":"3255236","TLE_LINE2":"2 47770  53.0536 238.4944 0001965  59.6237 300.4946 15.06406649 47105","RCS_SIZE":"LARGE","NORAD_CAT_ID":"47770","TIME_SYSTEM":"UTC","MEAN_MOTION_DOT":"0.00002044","EPHEMERIS_TYPE":"0","MEAN_MOTION":"15.06406649","ELEMENT_SET_NO":"999","COUNTRY_CODE":"US","MEAN_MOTION_DDOT":"0.0000000000000","OBJECT_NAME":"STARLINK-2193","MEAN_ANOMALY":"300.4946","DECAY_DATE":null,"ARG_OF_PERICENTER":"59.6237","SEMIMAJOR_AXIS":"6925.328","INCLINATION":"53.0536","APOAPSIS":"548.554","CLASSIFICATION_TYPE":"U","SITE":"AFETR","LAUNCH_DATE":"2021-03-04","RA_OF_ASC_NODE":"238.4944","OBJECT_ID":"2021-017BA","TLE_LINE1":"1 47770U 21017BA  21363.93251260  .00002044  00000-0  15605-3 0  9999","MEAN_ELEMENT_THEORY":"SGP4","PERIOD":"95.592","REV_AT_EPOCH":"4710","BSTAR":"0.00015605000000","CENTER_NAME":"EARTH"},{"INCLINATION":"53.0549","SEMIMAJOR_AXIS":"6925.345","CLASSIFICATION_TYPE":"U","APOAPSIS":"548.892","SITE":"AFETR","LAUNCH_DATE":"2021-03-04","RA_OF_ASC_NODE":"238.4007","PERIOD":"95.592","REV_AT_EPOCH":"4711","MEAN_ELEMENT_THEORY":"SGP4","TLE_LINE1":"1 47771U 21017BB  21363.94357464  .00000932  00000-0  81508-4 0  9994","OBJECT_ID":"2021-017BB","CENTER_NAME":"EARTH","BSTAR":"0.00008150800000","PERIAPSIS":"545.528","GP_ID":"192744819","EPOCH":"2021-12-29T22:38:44.848896","ECCENTRICITY":"0.00024290","REF_FRAME":"TEME","OBJECT_TYPE":"PAYLOAD","TLE_LINE2":"2 47771  53.0549 238.4007 0002429  61.2906 298.8327 15.06401167 47112","FILE":"3255236","EPHEMERIS_TYPE":"0","MEAN_MOTION":"15.06401167","TIME_SYSTEM":"UTC","MEAN_MOTION_DOT":"0.00000932","RCS_SIZE":"LARGE","NORAD_CAT_ID":"47771","MEAN_MOTION_DDOT":"0.0000000000000","COUNTRY_CODE":"US","ELEMENT_SET_NO":"999","OBJECT_NAME":"STARLINK-2194","ARG_OF_PERICENTER":"61.2906","DECAY_DATE":null,"MEAN_ANOMALY":"298.8327"},{"RCS_SIZE":"LARGE","NORAD_CAT_ID":"47772","TIME_SYSTEM":"UTC","MEAN_MOTION_DOT":"0.00003341","MEAN_MOTION":"15.06401476","EPHEMERIS_TYPE":"0","COUNTRY_CODE":"US","ELEMENT_SET_NO":"999","MEAN_MOTION_DDOT":"0.0000000000000","OBJECT_NAME":"STARLINK-2195","MEAN_ANOMALY":"306.6452","DECAY_DATE":null,"ARG_OF_PERICENTER":"53.4730","PERIAPSIS":"545.755","ECCENTRICITY":"0.00020990","GP_ID":"192743567","EPOCH":"2021-12-29T22:23:29.200704","OBJECT_TYPE":"PAYLOAD","REF_FRAME":"TEME","TLE_LINE2":"2 47772  53.0540 253.4448 0002099  53.4730 306.6452 15.06401476 46873","FILE":"3255236","SITE":"AFETR","LAUNCH_DATE":"2021-03-04","RA_OF_ASC_NODE":"253.4448","OBJECT_ID":"2021-017BC","TLE_LINE1":"1 47772U 21017BC  21363.93297686  .00003341  00000-0  24306-3 0  9992","MEAN_ELEMENT_THEORY":"SGP4","PERIOD":"95.592","REV_AT_EPOCH":"4687","CENTER_NAME":"EARTH","BSTAR":"0.00024306000000","SEMIMAJOR_AXIS":"6925.344","INCLINATION":"53.0540","APOAPSIS":"548.663","CLASSIFICATION_TYPE":"U"},{"RCS_SIZE":"LARGE","NORAD_CAT_ID":"47773","MEAN_MOTION":"15.06392791","EPHEMERIS_TYPE":"0","MEAN_MOTION_DOT":"0.00000285","TIME_SYSTEM":"UTC","COUNTRY_CODE":"US","ELEMENT_SET_NO":"999","MEAN_MOTION_DDOT":"0.0000000000000","OBJECT_NAME":"STARLINK-2196","MEAN_ANOMALY":"297.0025","ARG_OF_PERICENTER":"63.1160","DECAY_DATE":null,"PERIAPSIS":"545.904","ECCENTRICITY":"0.00019230","GP_ID":"192744319","EPOCH":"2021-12-29T22:18:10.888416","OBJECT_TYPE":"PAYLOAD","REF_FRAME":"TEME","TLE_LINE2":"2 47773  53.0550 253.4673 0001923  63.1160 297.0025 15.06392791 46862","FILE":"3255236","SITE":"AFETR","LAUNCH_DATE":"2021-03-04","RA_OF_ASC_NODE":"253.4673","TLE_LINE1":"1 47773U 21017BD  21363.92929269  .00000285  00000-0  38027-4 0  9991","OBJECT_ID":"2021-017BD","PERIOD":"95.593","REV_AT_EPOCH":"4686","MEAN_ELEMENT_THEORY":"SGP4","BSTAR":"0.00003802700000","CENTER_NAME":"EARTH","INCLINATION":"53.0550","SEMIMAJOR_AXIS":"6925.371","APOAPSIS":"548.567","CLASSIFICATION_TYPE":"U"},{"REF_FRAME":"TEME","OBJECT_TYPE":"PAYLOAD","TLE_LINE2":"2 47774  53.0549 253.4813 0002101  53.9454 306.1729 15.06394134 46876","FILE":"3255236","PERIAPSIS":"545.777","EPOCH":"2021-12-29T22:12:52.032672","GP_ID":"192745068","ECCENTRICITY":"0.00021010","OBJECT_NAME":"STARLINK-2197","DECAY_DATE":null,"ARG_OF_PERICENTER":"53.9454","MEAN_ANOMALY":"306.1729","TIME_SYSTEM":"UTC","MEAN_MOTION_DOT":"0.00000900","MEAN_MOTION":"15.06394134","EPHEMERIS_TYPE":"0","NORAD_CAT_ID":"47774","RCS_SIZE":"LARGE","MEAN_MOTION_DDOT":"0.0000000000000","COUNTRY_CODE":"US","ELEMENT_SET_NO":"999","SEMIMAJOR_AXIS":"6925.367","INCLINATION":"53.0549","CLASSIFICATION_TYPE":"U","APOAPSIS":"548.687","MEAN_ELEMENT_THEORY":"SGP4","PERIOD":"95.593","REV_AT_EPOCH":"4687","OBJECT_ID":"2021-017BE","TLE_LINE1":"1 47774U 21017BE  21363.92560223  .00000900  00000-0  79344-4 0  9994","BSTAR":"0.00007934400000","CENTER_NAME":"EARTH","SITE":"AFETR","LAUNCH_DATE":"2021-03-04","RA_OF_ASC_NODE":"253.4813"},{"EPOCH":"2021-12-29T22:28:47.159616","GP_ID":"192745320","ECCENTRICITY":"0.00017850","PERIAPSIS":"545.978","TLE_LINE2":"2 47775  53.0527 253.4461 0001785  55.2553 304.8604 15.06399714 46926","FILE":"3255236","REF_FRAME":"TEME","OBJECT_TYPE":"PAYLOAD","MEAN_MOTION_DDOT":"0.0000000000000","COUNTRY_CODE":"US","ELEMENT_SET_NO":"999","MEAN_MOTION":"15.06399714","EPHEMERIS_TYPE":"0","TIME_SYSTEM":"UTC","MEAN_MOTION_DOT":"0.00001879","RCS_SIZE":"LARGE","NORAD_CAT_ID":"47775","ARG_OF_PERICENTER":"55.2553","DECAY_DATE":null,"MEAN_ANOMALY":"304.8604","OBJECT_NAME":"STARLINK-2198","CLASSIFICATION_TYPE":"U","APOAPSIS":"548.451","INCLINATION":"53.0527","SEMIMAJOR_AXIS":"6925.349","RA_OF_ASC_NODE":"253.4461","SITE":"AFETR","LAUNCH_DATE":"2021-03-04","CENTER_NAME":"EARTH","BSTAR":"0.00014501000000","PERIOD":"95.592","REV_AT_EPOCH":"4692","MEAN_ELEMENT_THEORY":"SGP4","TLE_LINE1":"1 47775U 21017BF  21363.93665694  .00001879  00000-0  14501-3 0  9993","OBJECT_ID":"2021-017BF"},{"REF_FRAME":"TEME","OBJECT_TYPE":"PAYLOAD","TLE_LINE2":"2 47776  53.0536 243.6187 0001801  61.2531 298.8639 15.06396878 47025","FILE":"3255236","PERIAPSIS":"545.976","EPOCH":"2021-12-29T21:31:44.180832","GP_ID":"192744068","ECCENTRICITY":"0.00018010","OBJECT_NAME":"STARLINK-2209","DECAY_DATE":null,"ARG_OF_PERICENTER":"61.2531","MEAN_ANOMALY":"298.8639","TIME_SYSTEM":"UTC","MEAN_MOTION_DOT":"-0.00000010","EPHEMERIS_TYPE":"0","MEAN_MOTION":"15.06396878","NORAD_CAT_ID":"47776","RCS_SIZE":"LARGE","MEAN_MOTION_DDOT":"0.0000000000000","COUNTRY_CODE":"US","ELEMENT_SET_NO":"999","SEMIMAJOR_AXIS":"6925.358","INCLINATION":"53.0536","CLASSIFICATION_TYPE":"U","APOAPSIS":"548.470","MEAN_ELEMENT_THEORY":"SGP4","PERIOD":"95.592","REV_AT_EPOCH":"4702","OBJECT_ID":"2021-017BG","TLE_LINE1":"1 47776U 21017BG  21363.89703913 -.00000010  00000-0  18270-4 0  9991","CENTER_NAME":"EARTH","BSTAR":"0.00001827000000","LAUNCH_DATE":"2021-03-04","SITE":"AFETR","RA_OF_ASC_NODE":"243.6187"},{"BSTAR":"0.00012549000000","CENTER_NAME":"EARTH","OBJECT_ID":"2021-017BH","TLE_LINE1":"1 47777U 21017BH  21363.90072280  .00001588  00000-0  12549-3 0  9992","MEAN_ELEMENT_THEORY":"SGP4","PERIOD":"95.592","REV_AT_EPOCH":"4702","RA_OF_ASC_NODE":"243.6091","SITE":"AFETR","LAUNCH_DATE":"2021-03-04","APOAPSIS":"548.513","CLASSIFICATION_TYPE":"U","SEMIMAJOR_AXIS":"6925.358","INCLINATION":"53.0538","MEAN_ANOMALY":"302.4043","DECAY_DATE":null,"ARG_OF_PERICENTER":"57.7126","OBJECT_NAME":"STARLINK-2210","COUNTRY_CODE":"US","ELEMENT_SET_NO":"999","MEAN_MOTION_DDOT":"0.0000000000000","NORAD_CAT_ID":"47777","RCS_SIZE":"LARGE","TIME_SYSTEM":"UTC","MEAN_MOTION_DOT":"0.00001588","MEAN_MOTION":"15.06396883","EPHEMERIS_TYPE":"0","FILE":"3255236","TLE_LINE2":"2 47777  53.0538 243.6091 0001863  57.7126 302.4043 15.06396883 47027","OBJECT_TYPE":"PAYLOAD","REF_FRAME":"TEME","ECCENTRICITY":"0.00018630","EPOCH":"2021-12-29T21:37:02.449920","GP_ID":"192743819","PERIAPSIS":"545.933"}];
